[{"OBJECT_NAME":"KUIPER-00056","OBJECT_ID":"2025-134S","EPOCH":"2026-03-09T14:44:55.990752","MEAN_MOTION":14.83541877,"ECCENTRICITY":9.82e-5,"INCLINATION":51.9023,"RA_OF_ASC_NODE":223.5207,"ARG_OF_PERICENTER":62.1388,"MEAN_ANOMALY":297.9675,"EPHEMERIS_TYPE":0,"CLASSIFICATION_TYPE":"U","NORAD_CAT_ID":64516,"ELEMENT_SET_NO":999,"REV_AT_EPOCH":4020,"BSTAR":0.00069839,"MEAN_MOTION_DOT":5.582e-5,"MEAN_MOTION_DDOT":0},{"OBJECT_NAME":"FENGYUN 1C DEB","OBJECT_ID":"1999-025DUT","EPOCH":"2026-03-03T01:10:20.385984","MEAN_MOTION":14.72266949,"ECCENTRICITY":0.00720136,"INCLINATION":99.0747,"RA_OF_ASC_NODE":277.2706,"ARG_OF_PERICENTER":46.5612,"MEAN_ANOMALY":314.1554,"EPHEMERIS_TYPE":0,"CLASSIFICATION_TYPE":"U","NORAD_CAT_ID":36218,"ELEMENT_SET_NO":999,"REV_AT_EPOCH":60324,"BSTAR":0.00092678176,"MEAN_MOTION_DOT":6.036e-5,"MEAN_MOTION_DDOT":0}]
